STARLINK-1608
1 16146C 20057AF  21326.15435361  .00003208  00000-0  21488-3 0  3260
2 16146  53.0507 158.0543 0001892  88.3245 301.4470 15.06405542    11
